NORAD_CAT_ID,OBJECT_NAME,OBJECT_TYPE,EPOCH,MEAN_MOTION,ECCENTRICITY,INCLINATION,RA_OF_ASC_NODE,ARG_OF_PERICENTER,MEAN_ANOMALY,BSTAR,MEAN_MOTION_DOT,MEAN_MOTION_DDOT,TLE_LINE0,TLE_LINE1,TLE_LINE2,SEMIMAJOR_AXIS,PERIOD,APOGEE,PERIGEE,DECAYED
52486.0,STARLINK-3918,PAYLOAD,2022-12-31 09:09:34,15.08870838,0.0002296999999999,53.2162,245.9129,36.4292,323.6856,0.00071762,0.00011161,0.0,0 STARLINK-3918,1 52486U 22049AM  22365.38164419  .00011161  00000-0  71762-3 0  9992,2 52486  53.2162 245.9129 0002297  36.4292 323.6856 15.08870838 36644,6917.786,95.436,541.24,538.062,0.0
52486.0,STARLINK-3918,PAYLOAD,2023-01-01 02:38:48,15.08839045,0.0002368,53.2161,242.6422,27.7089,332.4028,-0.00017868,-3.131e-05,0.0,0 STARLINK-3918,1 52486U 22049AM  23001.11028307 -.00003131  00000-0 -17868-3 0  9993,2 52486  53.2161 242.6422 0002368  27.7089 332.4028 15.08839045 36755,6917.8830000000025,95.438,541.386,538.11,0.0
52486.0,STARLINK-3918,PAYLOAD,2023-01-01 09:00:21,15.0883004,0.0002227,53.2157,241.4523,34.9314,325.1824,-9.1376e-05,-1.742e-05,0.0,0 STARLINK-3918,1 52486U 22049AM  23001.37524875 -.00001742  00000-0 -91376-4 0  9995,2 52486  53.2157 241.4523 0002227  34.9314 325.1824 15.08830040 36630,6917.911,95.438,541.316,538.235,0.0
52486.0,STARLINK-3918,PAYLOAD,2023-01-01 15:21:54,15.0881551,0.0002469,53.2149,240.2642,40.314,319.8035,-0.00021813,-3.756e-05,0.0,0 STARLINK-3918,1 52486U 22049AM  23001.64021673 -.00003756  00000-0 -21813-3 0  9998,2 52486  53.2149 240.2642 0002469  40.3140 319.8035 15.08815510 36837,6917.955,95.439,541.528,538.112,0.0
52486.0,STARLINK-3918,PAYLOAD,2023-01-02 08:51:10,15.08820647,0.0002429,53.2162,236.9929,37.6029,322.5133,-7.095800000000001e-05,-1.417e-05,0.0,0 STARLINK-3918,1 52486U 22049AM  23002.36887119 -.00001417  00000-0 -70958-4 0  9990,2 52486  53.2162 236.9929 0002429  37.6029 322.5133 15.08820647 36784,6917.94,95.439,541.485,538.124,0.0
52486.0,STARLINK-3918,PAYLOAD,2023-01-02 21:34:16,15.08822164,0.0002316999999999,53.2158,234.6141,36.6959,323.4191,0.00021431,3.123e-05,0.0,0 STARLINK-3918,1 52486U 22049AM  23002.89879980  .00003123  00000-0  21431-3 0  9990,2 52486  53.2158 234.6141 0002317  36.6959 323.4191 15.08822164 37025,6917.935,95.439,541.403,538.197,0.0
52486.0,STARLINK-3918,PAYLOAD,2023-01-03 10:17:21,15.08832006,0.0002420999999999,53.2157,232.2345,39.4438,320.673,0.0005513,8.495e-05,0.0,0 STARLINK-3918,1 52486U 22049AM  23003.42872559  .00008495  00000-0  55130-3 0  9995,2 52486  53.2157 232.2345 0002421  39.4438 320.6730 15.08832006 36947,6917.905,95.438,541.445,538.095,0.0
52486.0,STARLINK-3918,PAYLOAD,2023-01-03 16:38:54,15.08841704,0.0002426,53.2156,231.045,40.0562,320.0608,0.00068807,0.0001068,0.0,0 STARLINK-3918,1 52486U 22049AM  23003.69368511  .00010680  00000-0  68807-3 0  9996,2 52486  53.2156 231.0450 0002426  40.0562 320.0608 15.08841704 37147,6917.875,95.437,541.418,538.062,0.0
52486.0,STARLINK-3918,PAYLOAD,2023-01-04 08:32:45,15.08855285,0.000247,53.2154,228.0712,41.0643,319.0535,0.00064754,0.00010037,0.0,0 STARLINK-3918,1 52486U 22049AM  23004.35608053  .00010037  00000-0  64754-3 0  9991,2 52486  53.2154 228.0712 0002470  41.0643 319.0535 15.08855285 37081,6917.834,95.437,541.4069999999998,537.99,0.0
52486.0,STARLINK-3918,PAYLOAD,2023-01-05 00:26:35,15.08865868,0.00025,53.2152,225.0972,43.3938,316.7251,0.00062614,9.698e-05,0.0,0 STARLINK-3918,1 52486U 22049AM  23005.01847184  .00009698  00000-0  62614-3 0  9999,2 52486  53.2152 225.0972 0002500  43.3938 316.7251 15.08865868 37346,6917.801,95.436,541.396,537.937,0.0
52486.0,STARLINK-3918,PAYLOAD,2023-01-05 14:45:04,15.08842814,0.0002262,53.2151,222.4207,43.5752,316.5418,-5.669e-05,-1.191e-05,0.0,0 STARLINK-3918,1 52486U 22049AM  23005.61463490 -.00001191  00000-0 -56690-4 0  9999,2 52486  53.2151 222.4207 0002262  43.5752 316.5418 15.08842814 37279,6917.871999999999,95.437,541.302,538.172,0.0
52486.0,STARLINK-3918,PAYLOAD,2023-01-06 06:38:55,15.08843636,0.0002347,53.2158,219.4472,47.5625,312.5565,0.0001031,1.353e-05,0.0,0 STARLINK-3918,1 52486U 22049AM  23006.27703614  .00001353  00000-0  10310-3 0  9993,2 52486  53.2158 219.4472 0002347  47.5625 312.5565 15.08843636 37534,6917.8690000000015,95.437,541.3580000000002,538.111,0.0
52486.0,STARLINK-3918,PAYLOAD,2023-01-07 20:48:11,15.08844007,0.0002369,53.2145,212.3107,51.0598,309.0605,0.00018904,2.722e-05,0.0,0 STARLINK-3918,1 52486U 22049AM  23007.86679682  .00002722  00000-0  18904-3 0  9994,2 52486  53.2145 212.3107 0002369  51.0598 309.0605 15.08844007 37775,6917.868,95.437,541.372,538.094,0.0
52486.0,STARLINK-3918,PAYLOAD,2023-01-08 14:17:26,15.08838049,0.0002418,53.2149,209.0392,57.8749,302.2478,4.3505e-06,-2.19e-06,0.0,0 STARLINK-3918,1 52486U 22049AM  23008.59543990 -.00000219  00000-0  43505-5 0  9994,2 52486  53.2149 209.0392 0002418  57.8749 302.2478 15.08838049 37889,6917.886,95.438,541.424,538.0790000000002,0.0
52486.0,STARLINK-3918,PAYLOAD,2023-01-08 22:14:21,15.08839957,0.000247,53.2148,207.5521,58.4458,301.6775,6.4667e-05,7.41e-06,0.0,0 STARLINK-3918,1 52486U 22049AM  23008.92663965  .00000741  00000-0  64667-4 0  9996,2 52486  53.2148 207.5521 0002470  58.4458 301.6775 15.08839957 37777,6917.880999999999,95.438,541.4540000000002,538.0369999999998,0.0
52486.0,STARLINK-3918,PAYLOAD,2023-01-09 06:11:17,15.08839574,0.0002375,53.215,206.0657,58.8293,301.2932,8.1864e-05,1.015e-05,0.0,0 STARLINK-3918,1 52486U 22049AM  23009.25784002  .00001015  00000-0  81864-4 0  9992,2 52486  53.2150 206.0657 0002375  58.8293 301.2932 15.08839574 37821,6917.882,95.438,541.39,538.104,0.0
52486.0,STARLINK-3918,PAYLOAD,2023-01-09 22:05:08,15.08842701,0.0002381,53.215,203.092,59.2769,300.8457,0.00012612,1.7199999999999998e-05,0.0,0 STARLINK-3918,1 52486U 22049AM  23009.92023919  .00001720  00000-0  12612-3 0  9996,2 52486  53.2150 203.0920 0002381  59.2769 300.8457 15.08842701 37925,6917.871999999999,95.437,541.384,538.09,0.0
52486.0,STARLINK-3918,PAYLOAD,2023-01-10 06:02:04,15.08842864,0.0002354,53.2151,201.6054,59.3418,300.7806,0.00013365,1.84e-05,0.0,0 STARLINK-3918,1 52486U 22049AM  23010.25143920  .00001840  00000-0  13365-3 0  9998,2 52486  53.2151 201.6054 0002354  59.3418 300.7806 15.08842864 38131,6917.871999999999,95.437,541.365,538.1080000000002,0.0
52486.0,STARLINK-3918,PAYLOAD,2023-01-10 12:23:36,15.08841773,0.0002434,53.2145,200.4155,61.4865,298.6372,0.00013685,1.89e-05,0.0,0 STARLINK-3918,1 52486U 22049AM  23010.51640023  .00001890  00000-0  13685-3 0  9993,2 52486  53.2145 200.4155 0002434  61.4865 298.6372 15.08841773 38010,6917.875,95.437,541.424,538.056,0.0
52486.0,STARLINK-3918,PAYLOAD,2023-01-10 21:55:55,15.08846066,0.000235,53.2145,198.6313,61.7627,298.3603,0.00016423,2.327e-05,0.0,0 STARLINK-3918,1 52486U 22049AM  23010.91383776  .00002327  00000-0  16423-3 0  9995,2 52486  53.2145 198.6313 0002350  61.7627 298.3603 15.08846066 38070,6917.861999999999,95.437,541.3530000000002,538.101,0.0
52486.0,STARLINK-3918,PAYLOAD,2023-01-11 12:14:24,15.08840066,0.0002435,53.2143,195.9552,63.31800000000001,296.8061,4.7028e-05,4.6e-06,0.0,0 STARLINK-3918,1 52486U 22049AM  23011.51000047  .00000460  00000-0  47028-4 0  9991,2 52486  53.2143 195.9552 0002435  63.3180 296.8061 15.08840066 38322,6917.88,95.438,541.43,538.061,0.0
52486.0,STARLINK-3918,PAYLOAD,2023-01-11 18:35:56,15.08843688,0.0002361,53.2153,194.7655,65.007,295.1167,6.8119e-05,7.96e-06,0.0,0 STARLINK-3918,1 52486U 22049AM  23011.77495772  .00000796  00000-0  68119-4 0  9998,2 52486  53.2153 194.7655 0002361  65.0070 295.1167 15.08843688 38208,6917.8690000000015,95.437,541.367,538.101,0.0
52486.0,STARLINK-3918,PAYLOAD,2023-01-12 18:26:43,15.08838873,0.0002327,53.2153,190.3044,67.9649,292.1591,3.9036e-05,3.33e-06,0.0,0 STARLINK-3918,1 52486U 22049AM  23012.76856064  .00000333  00000-0  39036-4 0  9996,2 52486  53.2153 190.3044 0002327  67.9649 292.1591 15.08838873 38519,6917.884,95.438,541.359,538.139,0.0
52486.0,STARLINK-3918,PAYLOAD,2023-01-12 21:37:29,15.08840413,0.0002342,53.2153,189.7098,68.368,291.7562,2.8628e-05,1.67e-06,0.0,0 STARLINK-3918,1 52486U 22049AM  23012.90104020  .00000167  00000-0  28628-4 0  9990,2 52486  53.2153 189.7098 0002342  68.3680 291.7562 15.08840413 38377,6917.879,95.438,541.364,538.124,0.0
52486.0,STARLINK-3918,PAYLOAD,2023-01-13 18:17:30,15.08842203,0.0002295999999999,53.2155,185.8444,67.8302,292.2933,9.8627e-05,1.282e-05,0.0,0 STARLINK-3918,1 52486U 22049AM  23013.76215767  .00001282  00000-0  98627-4 0  9991,2 52486  53.2155 185.8444 0002296  67.8302 292.2933 15.08842203 38506,6917.874,95.437,541.327,538.15,0.0
52486.0,STARLINK-3918,PAYLOAD,2023-01-14 03:49:49,15.08841438,0.0002194,53.216,184.0601,64.4264,295.6955,6.6442e-05,7.69e-06,0.0,0 STARLINK-3918,1 52486U 22049AM  23014.15959904  .00000769  00000-0  66442-4 0  9992,2 52486  53.2160 184.0601 0002194  64.4264 295.6955 15.08841438 38729,6917.876,95.437,541.259,538.2230000000001,0.0
52486.0,STARLINK-3918,PAYLOAD,2023-01-15 03:40:36,15.08837692,0.0002284,53.2138,179.6027,74.5462,285.5782,-3.9222e-06,-3.51e-06,0.0,0 STARLINK-3918,1 52486U 22049AM  23015.15320477 -.00000351  00000-0 -39222-5 0  9996,2 52486  53.2138 179.6027 0002284  74.5462 285.5782 15.08837692 38877,6917.887,95.438,541.332,538.172,0.0
52486.0,STARLINK-3918,PAYLOAD,2023-01-15 11:37:33,15.08828969,0.0002108,53.2153,178.1142,72.7858,287.3364,2.8312e-05,1.62e-06,0.0,0 STARLINK-3918,1 52486U 22049AM  23015.48441007  .00000162  00000-0  28312-4 0  9990,2 52486  53.2153 178.1142 0002108  72.7858 287.3364 15.08828969 38929,6917.914000000001,95.438,541.237,538.321,0.0
52486.0,STARLINK-3918,PAYLOAD,2023-01-15 14:48:18,15.08836524,0.0002073,53.2158,177.5186,71.7311,288.3906,2.0625e-05,4e-07,0.0,0 STARLINK-3918,1 52486U 22049AM  23015.61688648  .00000040  00000-0  20625-4 0  9993,2 52486  53.2158 177.5186 0002073  71.7311 288.3906 15.08836524 38782,6917.891,95.438,541.19,538.322,0.0
